LEMUR-2-PETERG          
1 42841U 17042S   26068.48235713  .00023240  00000+0  81076-3 0  9993
2 42841  97.3980 253.6596 0003700 341.6938  18.4169 15.29611459473171
STARLINK-35393          
1 65827U 25221E   26068.44899472  .00022317  00000+0  76321-3 0  9995
2 65827  53.1596  89.6657 0001398  94.3604 265.7557 15.30205542 26043
